BusinessEntityID,Name,AddressType,AddressLine1,AddressLine2,City,StateProvinceName,PostalCode,CountryRegionName
1490,"Engineered Bike Systems","Main Office","123 Camelia Avenue","","Oxnard","California","93030","United States"
556,"Mechanical Products Ltd.","Main Office","22555 Paseo De Las Americas","","San Diego","California","92102","United States"
1002,"Distant Inn","Main Office","25001 Montague Expressway","","Milpitas","California","95035","United States"
1296,"Trailblazing Sports","Main Office","251340 E. South St.","","Cerritos","California","90703","United States"
526,"Futuristic Bikes","Main Office","25136 Jefferson Blvd.","","Culver City","California","90232","United States"
1244,"Finish and Sealant Products","Main Office","25150 El Camino Real","","San Bruno","California","94066","United States"
1886,"Trendy Department Stores","Main Office","25472 Marlay Ave","","Fontana","California","92335","United States"
1308,"More Bikes!","Main Office","25600 E St Andrews Pl","","Santa Ana","California","92701","United States"
1098,"Strenuous Exercise Shop","Main Office","25620 Firestone Boulevard","","Norwalk","California","90650","United States"
458,"Metallic Paint and Overcoat Co","Main Office","25751 University Drive","","Vista","California","92084","United States"
1446,"Curbside Sporting Goods","Main Office","25871 North Main Street","","Walnut Creek","California","94596","United States"
484,"World Bike Discount Store","Main Office","3065 Santa Margarita Parkway","","Trabuco Canyon","California","92679","United States"
900,"Basic Sports Equipment","Main Office","3250 Baldwin Park Blvd","","Baldwin Park","California","91706","United States"
644,"Aerobic Exercise Company","Main Office","39933 Mission Oaks Blvd","","Camarillo","California","93010","United States"
1426,"Bicycle Merchandise Warehouse","Main Office","409 Santa Monica Blvd.","","Santa Monica","California","90401","United States"
1184,"Separate Parts Corporation","Main Office","440 West Huntington Dr.","","Monrovia","California","91016","United States"
1348,"Healthy Activity Store","Main Office","4460 Newport Center Drive","","Newport Beach","California","92625","United States"
1026,"Metropolitan Sports Supply","Main Office","482505 Warm Springs Blvd.","","Fremont","California","94536","United States"
700,"Fleet Bikes","Main Office","54254 Pacific Ave.","","Stockton","California","95202","United States"
478,"Golf and Cycle Store","Main Office","5500 Grossmont Center Drive","","La Mesa","California","91941","United States"
294,"Professional Sales and Service","Main Office","57251 Serene Blvd","","Van Nuys","California","91411","United States"
1838,"Valley Bicycle Distributors","Main Office","5867 Sunrise Boulevard","","Citrus Heights","California","95610","United States"
630,"Rural Department Store","Main Office","5967 W Las Positas Blvd","","Pleasanton","California","94566","United States"
1014,"Bike World","Main Office","60025 Bollinger Canyon Road","","San Ramon","California","94583","United States"
1392,"Discount Tours","Main Office","603 Gellert Blvd","","Daly City","California","94015","United States"
1360,"Main Bicycle Services","Main Office","60750 San Clemente","","Hayward","California","94541","United States"
1196,"Weekend Bike Tours","Main Office","630 N. Capitol Ave.","","San Jose","California","95112","United States"
1254,"Mountain Bike Center","Main Office","6756 Mowry","","Newark","California","94560","United States"
302,"Area Bike Accessories","Main Office","6900 Sisk Road","","Modesto","California","95354","United States"
990,"Locks Company","Main Office","70259 West Sunnyview Ave","","Visalia","California","93291","United States"
504,"Economy Bikes Company","Main Office","72502 Eastern Ave.","","Bell Gardens","California","90201","United States"
1458,"Alpine Ski House","Main Office","7505 Laguna Boulevard","","Elk Grove","California","95624","United States"
978,"Commercial Sporting Goods","Main Office","9700 Sisk Road","","Modesto","California","95354","United States"
816,"Farthermost Bike Shop","Main Office","99000 S. Avalon Blvd. Suite 750","","Carson","California","90746","United States"
652,"Westside Plaza","Main Office","99040 California Avenue","","Sand City","California","93955","United States"
958,"Big-Time Bike Store","Main Office","9909 W. Ventura Boulevard","","Camarillo","California","93010","United States"
1850,"Wheel Gallery","Main Office","9920 Bridgepointe Parkway","","San Mateo","California","94404","United States"
448,"Traction Tire Company","Main Office","99235 Hawthorne Blvd.","","Torrance","California","90505","United States"
1092,"Good Toys","Main Office","99700 Bell Road","","Auburn","California","95603","United States"
1336,"Eastside Department Store","Main Office","9992 Whipple Rd","","Union City","California","94587","United States"
912,"Retail Cycle Shop","Main Office","Bayshore Mall","","Eureka","California","95501","United States"
460,"Pro Sporting Goods","Main Office","Camarillo Athletic Stores","","Camarillo","California","93010","United States"
1066,"Small Bike Shop","Main Office","Corp Ofc Accts Payable","","El Segundo","California","90245","United States"
492,"Coalition Bike Company","Main Office","Corporate Office","","El Segundo","California","90245","United States"
474,"Number 1 Supply","Main Office","Escondido","","Escondido","California","92025","United States"
754,"Distinctive Store","Main Office","Factory Merchants","","Barstow","California","92311","United States"
370,"Resale Services","Main Office","Fox Hills","","Culver City","California","90232","United States"
966,"The New Bike Store","Main Office","Hanford Mall","","Hanford","California","93230","United States"
790,"Preferred Bikes","Main Office","Incom Sports Center","","Ontario","California","91764","United States"
1108,"Affordable Sports Equipment","Main Office","Lake Elisnor Place","","Lake Elsinore","California","92530","United States"
614,"Outdoor Sporting Goods","Main Office","Lakewood Mall","","Lakewood","California","90712","United States"
1956,"Wire Baskets and Parts","Main Office","Mall Of Orange","","Orange","California","92867","United States"
776,"Principal Bike Company","Main Office","Mountain Square","","Upland","California","91786","United States"
1944,"Quantity Discounts","Main Office","Natomas Marketplace","","Sacramento","California","95814","United States"
396,"Flawless Bike Shop","Main Office","North County Square","","Vista","California","92084","United States"
400,"Exertion Activities Club","Main Office","Norwalk Square","","Norwalk","California","90650","United States"
572,"Bike Universe","Main Office","Nut Tree Factory","","Vacaville","California","95688","United States"
1990,"Technical Parts Manufacturing","Main Office","Ontario Mills","","Ontario","California","91764","United States"
1932,"Thrifty Parts and Sales","Main Office","Oxnard Outlet","","Oxnard","California","93030","United States"
1214,"Sturdy Toys","Main Office","Pacific West Outlet","","Gilroy","California","95020","United States"
1478,"Metropolitan Manufacturing","Main Office","Parkway Plaza","","El Cajon","California","92020","United States"
742,"Vehicle Shop","Main Office","Pavillion @ Redlands","","Redlands","California","92373","United States"
1376,"Sports Products Store","Main Office","Po Box 252525","","Santa Ana","California","92701","United States"
1278,"Many Bikes Store","Main Office","Receiving","","Fullerton","California","92831","United States"
696,"Extreme Riding Supplies","Main Office","Riverside","","Sherman Oaks","California","91403","United States"
1860,"Sparkling Paint and Finishes","Main Office","San Diego Factory","","San Ysidro","California","92173","United States"
1134,"Highway Bike Shop","Main Office","Simi @ The Plaza","","Simi Valley","California","93065","United States"
1978,"Exercise Center","Main Office","Stevens Creek Shopping Center","","San Jose","California","95112","United States"
470,"Unicycles, Bicycles, and Tricycles","Main Office","Stonewood Mall","","Downey","California","90241","United States"
376,"Extended Bike Sales","Main Office","The Citadel Commerce Plaza","","City Of Commerce","California","90040","United States"
670,"Fitness Cycling","Main Office","The Quad @ WestView","","Whittier","California","90605","United States"
1146,"Vale Riding Supplies","Main Office","Topanga Plaza","","Canoga Park","California","91303","United States"
1226,"Brown Bicycle Company","Main Office","University Town Center","","San Diego","California","92102","United States"
1920,"Timely Shipping Service","Main Office","Viejas Outlet Center","","Alpine","California","91901","United States"
950,"The Bicycle Accessories Company","Main Office","Vista Marketplace","","Alhambra","California","91801","United States"
924,"Riding Excursions","Main Office","West Park Plaza","","Irvine","California","92614","United States"
1012,"Stylish Department Stores","Main Office","1 Corporate Center Drive","","Miami","Florida","33127","United States"
1338,"Sports Sales and Rental","Main Office","100 Fifth Drive","","Millington","Tennessee","38054","United States"
1424,"Closeout Boutique","Main Office","1050 Oak Street","","Seattle","Washington","98104","United States"
1110,"Local Sales and Rental","Main Office","1200 First Ave.","","Joliet","Illinois","60433","United States"
704,"Only Bikes and Accessories","Main Office","123 Union Square South","","New York","New York","10007","United States"
1480,"Orange Bicycle Company","Main Office","123 W. Lake Ave.","","Peoria","Illinois","61606","United States"
642,"Advanced Bike Components","Main Office","12345 Sterling Avenue","","Irving","Texas","75061","United States"
430,"Center Cycle Shop","Shipping","1318 Lasalle Street","","Bothell","Washington","98011","United States"
1186,"Basic Bike Company","Main Office","15 East Main","","Port Orchard","Washington","98366","United States"
932,"Modular Cycle Systems","Shipping","165 North Main","","Austin","Texas","78701","United States"
1170,"Sample Bike Store","Shipping","2000 300th Street","","Denver","Colorado","80203","United States"
502,"Eighty Toy Stores","Main Office","2025 Greenwood Ct","","Mcdonough","Georgia","30253","United States"
1826,"Executive Discount Store","Main Office","20500 S.W. 2512th Ave","","Miami","Florida","33127","United States"
662,"Fitness Toy Store","Main Office","220 Mercy Drive","","Garland","Texas","75040","United States"
530,"Outdoor Distributors","Main Office","225 Hyde Rd","","Farmington","Connecticut","06032","United States"
822,"Racing Bike Outlet","Main Office","225 South 314th Street","","Federal Way","Washington","98003","United States"
934,"A Bike Store","Main Office","2251 Elliot Avenue","","Seattle","Washington","98104","United States"
1936,"Active Transport Inc.","Main Office","225200 Miles Ave.","","North Randall","Ohio","44128","United States"
1804,"Cycle Clearance","Main Office","2255 254th Avenue Se","","Albany","Oregon","97321","United States"
1888,"Vintage Sport Boutique","Main Office","22571 South 2500 East","","Idaho Falls","Idaho","83402","United States"
336,"Imported and Domestic Cycles","Main Office","22589 West Craig Road","","North Las Vegas","Nevada","89030","United States"
914,"Social Activities Club","Main Office","23025 S.W. Military Rd.","","San Antonio","Texas","78204","United States"
372,"The Gear Store","Main Office","2345 North Freeway","","Houston","Texas","77003","United States"
1150,"Certified Bicycle Supply","Main Office","2345 West Spencer Road","","Lynnwood","Washington","98036","United States"
514,"Widget Bicycle Specialists","Main Office","23456 Calumet St","","Clearwater","Florida","33755","United States"
740,"Touring Services","Main Office","25 Myrtle Beach","","Myrtle Beach","South Carolina","29577","United States"
684,"This Area Sporting Goods","Main Office","25 N State St","","Chicago","Illinois","60610","United States"
974,"Leather and Vinyl Manufacturing","Main Office","250 E. County Line Rd.","","Indianapolis","Indiana","46204","United States"
506,"Third Bike Store","Main Office","2500 North Stemmons Freeway","","Dallas","Texas","75201","United States"
540,"Metro Bike Works","Main Office","250000 Eight Mile Road","","Detroit","Michigan","48226","United States"
574,"Fifth Bike Store","Main Office","2502 Evergreen Ste E","","Everett","Washington","98201","United States"
494,"Travel Systems","Main Office","2505 Gateway Drive","","North Sioux City","South Dakota","57049","United States"
1168,"Optimal Bikes","Main Office","25050 S. Columbia Ave","","Campbellsville","Kentucky","42718","United States"
612,"Metro Cycle Shop","Main Office","2507 Pacific Ave S","","Tacoma","Washington","98403","United States"
1068,"Superior Hardware Distributors","Main Office","250775 SW Hillsdale Hwy","","Beaverton","Oregon","97005","United States"
542,"Best o' Bikes","Main Office","250880 Baur Blvd","","Saint Louis","Missouri","63103","United States"
1294,"Go-cart and Bike Specialists","Main Office","2509 W. Frankford","","Carrollton","Texas","75006","United States"
1228,"District Mall","Main Office","25095 W. Florissant","","Ferguson","Missouri","63135","United States"
1876,"Demand Distributors","Main Office","25102 Springwater","","Wenatchee","Washington","98801","United States"
1470,"All Cycle Shop","Main Office","25111 228th St Sw","","Bothell","Washington","98011","United States"
1808,"Transport Bikes","Main Office","25130 South State Street","","Sandy","Utah","84070","United States"
1358,"Leading Sales & Repair","Main Office","25149 Howard Dr","","West Chicago","Illinois","60185","United States"
1856,"Grown-up Bike Store","Main Office","25192 Princeton Rd.","","Springdale","Ohio","45246","United States"
848,"Satin Finish Company","Main Office","25220 Airline Road","","Corpus Christi","Texas","78404","United States"
1000,"Games and Sport Supply Company","Main Office","2525 Electrics Blvd.","","Huntsville","Alabama","35801","United States"
1082,"First Cycle Store","Main Office","25250 N 90th St","","Scottsdale","Arizona","85257","United States"
584,"Curbside Universe","Main Office","25264 E. 260th","","Euclid","Ohio","44119","United States"
1268,"Out-of-the-Way Hotels","Main Office","25269 N. Wood Dale Rd","","Wood Dale","Illinois","60191","United States"
714,"Discount Bicycle Specialists","Main Office","25269 Wood Dale Rd.","","Wood Dale","Illinois","60191","United States"
1246,"Finer Parts Shop","Main Office","2526a Tri-Lake Blvd Ne","","Kirkland","Washington","98033","United States"
1482,"Riding Associates","Main Office","2528 Meridian E","","Puyallup","Washington","98371","United States"
1170,"Sample Bike Store","Main Office","2530 South Colorado Blvd.","","Denver","Colorado","80203","United States"
1282,"Kickstands and Accessories Company","Main Office","25300 Biddle Road","","Medford","Oregon","97504","United States"
598,"Sheet Metal Manufacturing","Main Office","25306 Harvey Rd.","","College Station","Texas","77840","United States"
1006,"Economic Parts Supply","Main Office","2532 Fairgrounds Road","","West Kingston","Rhode Island","02892","United States"
382,"Work and Play Association","Main Office","2533 Eureka Rd.","","Southgate","Michigan","48195","United States"
1796,"Professional Containers and Packaging Co.","Main Office","253731 West Bell Road","","Surprise","Arizona","85374","United States"
632,"Sports Commodities","Main Office","253950 N.E. 178th Place","","Woodinville","Washington","98072","United States"
744,"First Department Stores","Main Office","2540 Dell Range Blvd","","Cheyenne","Wyoming","82001","United States"
826,"Bike Goods","Main Office","254075 Biscayne Blvd.","","North Miami Beach","Florida","33162","United States"
1428,"Spoke Manufacturers","Main Office","2545 N.W. 107th Ave.","","Miami","Florida","33127","United States"
1350,"Every Bike Shop","Main Office","2550 High Street","","La Vergne","Tennessee","37086","United States"
1218,"Fad Outlet","Main Office","2550 Ne Sandy Blvd","","Portland","Oregon","97205","United States"
1946,"Swift Cycles","Main Office","25500 Old Spanish Trail","","Houston","Texas","77003","United States"
338,"Systematic Sales","Main Office","2551 East Warner Road","","Gilbert","Arizona","85233","United States"
726,"Westside Cycle Store","Main Office","25550 Executive Dr","","Elgin","Illinois","60120","United States"
804,"Downtown Hotel","Main Office","2560 E. Newlands Dr","","Fernley","Nevada","89408","United States"
792,"Rally Day Mall","Main Office","2561 Nw 8410th Avenue","","Miami","Florida","33127","United States"
616,"Tread Industries","Main Office","25631 Florida Mall Ave.","","Orlando","Florida","32804","United States"
840,"Roadway Supplies","Main Office","2564 S. Redwood Rd.","","Riverton","Utah","84065","United States"
1124,"Tires and Tubes","Main Office","25708 Dell Range Blvd.","","Cheyenne","Wyoming","82001","United States"
1292,"Family Entertainment Center","Main Office","25718 Se Sunnyside Rd","","Clackamas","Oregon","97015-6403","United States"
1242,"Field Trip Store","Main Office","2575 Rocky Mountain Ave.","","Loveland","Colorado","80537","United States"
1290,"Frugal Bike Shop","Main Office","2575 West 2700 South","","Salt Lake City","Utah","84101","United States"
1328,"Front Sporting Goods","Main Office","257700 Ne 76th Street","","Redmond","Washington","98052","United States"
610,"Mountain Emporium","Main Office","25800 Gallitin Rd.","","Nashville","Tennessee","37203","United States"
1258,"Scooters and Bikes Store","Main Office","258101 Nw Evergreen Parkway","","Beaverton","Oregon","97005","United States"
964,"Year-Round Sports","Main Office","2583 Se 272nd St","","Kent","Washington","98031","United States"
1176,"Eleventh Bike Store","Main Office","25850 Post Road","","Westport","Connecticut","06880","United States"
472,"Safe Cycles Shop","Main Office","25915 140th Ave Ne","","Bellevue","Washington","98004","United States"
1016,"Central Discount Store","Main Office","259826 Russell Rd. South","","Kent","Washington","98031","United States"
472,"Safe Cycles Shop","Shipping","2681 Eagle Peak","","Bellevue","Washington","98004","United States"
1412,"City Manufacturing","Main Office","3025 E Waterway Blvd","","Shelton","Washington","98584","United States"
1028,"Progressive Sports","Main Office","3207 S Grady Way","","Renton","Washington","98055","United States"
880,"The Bike Shop","Main Office","3250 South Meridian","","Puyallup","Washington","98371","United States"
1090,"General Associates","Main Office","32525 Hollywood Blvd.","","Hollywood","Florida","33021","United States"
620,"Tandem Bicycle Store","Main Office","3333 Micro Drive","","Millington","Tennessee","38054","United States"
1118,"Synthetic Materials Manufacturing","Main Office","3390 South 23rd St.","","Tacoma","Washington","98403","United States"
938,"Two Bike Shops","Main Office","35525-9th Street Sw","","Puyallup","Washington","98371","United States"
926,"Unique Bikes","Main Office","3900 S. 997th St.","","Milwaukee","Wisconsin","53202","United States"
1182,"New and Used Bicycles","Main Office","3990 Silas Creek Parkway","","Winston-Salem","North Carolina","27104","United States"
680,"Principal Bicycle Supply","Main Office","39950 Airport Blvd.","","Mobile","Alabama","36602","United States"
760,"Handy Bike Services","Main Office","399700 John R. Rd.","","Madison Heights","Michigan","48071","United States"
1982,"Mail-Order Outlet","Main Office","409 S. Main Ste. 25","","Ellensburg","Washington","98926","United States"
674,"Imaginary Toys","Main Office","4210 E Sprague Ave","","Spokane","Washington","99202","United States"
772,"Professional Sporting Goods","Main Office","42500 South Franklin Street","","Michigan City","Indiana","46360","United States"
702,"Local Hardware Factory","Main Office","42500 W 76th St","","Chicago","Illinois","60610","United States"
1884,"Retirement Activities Association","Main Office","42500 West Park Drive","","Atlanta","Georgia","30308","United States"
518,"Latest Sports Equipment","Main Office","4251 First Avenue","","Seattle","Washington","98104","United States"
820,"Weekend Tours","Main Office","42522 Northrupp","","Fort Wayne","Indiana","46807","United States"
1046,"Better Bike Shop","Main Office","42525 Austell Road","","Austell","Georgia","30106","United States"
524,"Lots of Bikes Storehouse","Main Office","4255 East Lies Road","","Carol Stream","Illinois","60188","United States"
860,"Sleek Bikes","Main Office","44025 W. Empire","","Denby","South Dakota","57716","United States"
756,"Grand Cycle Store","Main Office","44606 N Division St","","Spokane","Washington","99202","United States"
778,"One-Piece Handle Bars","Main Office","4496 Barnes Crossing Rd.","","Tupelo","Mississippi","38804","United States"
1980,"Great Bicycle Supply","Main Office","455 256th St.","","Moline","Illinois","61265","United States"
824,"Utilitarian Sporting Goods","Main Office","4635 S. Harrison Blvd.","","Ogden","Utah","84401","United States"
1188,"Fabrikam Inc., West","Main Office","46460 West Oaks Drive","","Novi","Michigan","48375","United States"
682,"Thrilling Bike Tours","Main Office","4660 Rodeo Road","","Santa Fe","New Mexico","87501","United States"
558,"Commendable Bikes","Main Office","4781 Highway 95","","Sandpoint","Idaho","83864","United States"
398,"Grand Bicycle Stores","Main Office","48255 I-10 E. @ Eastpoint Blvd.","","Baytown","Texas","77520","United States"
774,"Rugged Bikes","Main Office","48995 Evergreen Wy.","","Everett","Washington","98201","United States"
1304,"Authorized Bike Sales and Rental","Main Office","490 Ne 4th St","","Renton","Washington","98055","United States"
1138,"Roving Sports","Main Office","4927 S Meridian Ave Ste D","","Puyallup","Washington","98371","United States"
882,"Safe Toys","Main Office","49925 Crestview Drive N.E.","","Rio Rancho","New Mexico","87124","United States"
936,"Journey Sporting Goods","Main Office","509 Nafta Boulevard","","Laredo","Texas","78040","United States"
968,"Resident Cycle Shop","Main Office","5230a Hwy. 2553","","Hixson","Tennessee","37343","United States"
1256,"Specialty Sports Store","Main Office","52500 Liberty Way","","Fort Worth","Texas","76102","United States"
930,"Associated Bikes","Main Office","5420 West 22500 South","","Salt Lake City","Utah","84101","United States"
954,"Futuristic Sport Distributors","Main Office","5525 South Hover Road","","Longmont","Colorado","80501","United States"
660,"Sports Merchandise","Main Office","558 S 6th St","","Klamath Falls","Oregon","97601","United States"
712,"Another Sporting Goods Company","Main Office","5650 West 88th Ave.","","Westminster","Colorado","80030","United States"
640,"Western Bike Supplies","Main Office","566 S. Main","","Cedar City","Utah","84720","United States"
442,"Another Bicycle Company","Main Office","567 Sw Mcloughlin Blvd","","Milwaukie","Oregon","97222","United States"
1306,"Two-Seater Bikes","Main Office","5700 Legacy Dr","","Plano","Texas","75074","United States"
468,"Topnotch Bikes","Main Office","574 Atlanta Highway","","Montgomery","Alabama","36104","United States"
728,"Wholesale Bikes","Main Office","58 Teed Drive","","Randolph","Massachusetts","02368","United States"
634,"Riverside Company","Main Office","5998 E Lorain","","Oberlin","Ohio","44074","United States"
786,"Outdoor Equipment Store","Main Office","6 Cotton Road","","Nashua","New Hampshire","03064","United States"
1148,"A Great Bicycle Company","Main Office","6030 Robinson Road","","Jefferson City","Missouri","65101","United States"
722,"Pedals Warehouse","Main Office","6055 Shawnee Industrial Way","","Suwanee","Georgia","30024","United States"
604,"Mechanical Sports Center","Main Office","6225 Glenway Ave.","","Cincinnati","Ohio","45202","United States"
1172,"Extras Sporting Goods","Main Office","625 W Jackson Blvd. Unit 2502","","Chicago","Illinois","60610","United States"
1970,"Permanent Finish Products","Main Office","62500 Neil Road","","Reno","Nevada","89502","United States"
1316,"Wheelsets Storehouse","Main Office","63 Badgers Island West","","Kittery","Maine","03904","United States"
1280,"Largest Bike Store","Main Office","63 W Monroe","","Chicago","Illinois","60610","United States"
1948,"Classic Cycle Store","Main Office","630 Oldgate Lane","","Milford","Connecticut","06460","United States"
842,"Sensational Discount Store","Main Office","6333 Cloverleaf Parkway","","Kannapolis","North Carolina","28081","United States"
1004,"Finer Mart","Main Office","640 South 994th St. W.","","Billings","Montana","59101","United States"
2051,"A Bicycle Association","Main Office","6405 Erie Blvd. Hills Plaza","","De Witt","New York","13214","United States"
1216,"Beneficial Exercises and Activities","Main Office","6425 Nw Loop 410","","San Antonio","Texas","78204","United States"
1942,"Functional Store North","Main Office","650 E Altamonte Dr","","Altamonte Springs","Florida","32701","United States"
316,"Fun Toys and Bikes","Main Office","6500 East Grant Road","","Tucson","Arizona","85701","United States"
814,"Excellent Riding Supplies","Main Office","6555 Quince Road, Suite 2025","","Memphis","Tennessee","38103","United States"
1416,"Pedal Systems Company","Main Office","656 Cox Creek Pkwy.","","Florence","Alabama","35630","United States"
1994,"World of Bikes","Main Office","660 Lindbergh","","Saint Louis","Missouri","63103","United States"
498,"Moderately-Priced Bikes Store","Main Office","67 Rainer Ave S","","Renton","Washington","98055","United States"
454,"Tire Company","Main Office","675 East Ave.","","Warwick","Rhode Island","02889","United States"
1128,"Retail Sporting Goods","Main Office","6753 Howard Hughes Parkway","","Las Vegas","Nevada","89106","United States"
560,"Online Bike Sellers","Main Office","678 Eastman Ave.","","Midland","Michigan","48640","United States"
406,"Kickstand Sellers","Main Office","6789 Warren Road","","Westland","Michigan","48185","United States"
1344,"Exotic Bikes","Main Office","6900 William Richardson Ct.","","South Bend","Indiana","46601","United States"
1858,"Bicycle Lines Distributors","Main Office","6996 South Lindbergh","","Saint Louis","Missouri","63103","United States"
374,"Immense Manufacturing Company","Main Office","70 N.W. Plaza","","Saint Ann","Missouri","63074","United States"
1810,"Sellers of Cycles","Main Office","700 Se Sunnyside Road","","Clackamas","Oregon","97015","United States"
802,"Successful Sales Company","Main Office","7009 Sw Hall Blvd.","","Tigard","Oregon","97223","United States"
892,"Coho Sports","Main Office","705 SE Mall Parkway","","Everett","Washington","98201","United States"
1992,"Totes & Baskets Company","Main Office","72540 Blanco Rd.","","San Antonio","Texas","78204","United States"
1346,"Fitness Hotel","Main Office","74400 France Avenue South","","Edina","Minnesota","55436","United States"
762,"Friendly Bike Shop","Main Office","750 Lakeway Dr","","Bellingham","Washington","98225","United States"
1422,"Fashionable Department Stores","Main Office","7505 Commercial Dr.","","New Hartford","New York","13413","United States"
1910,"Wingtip Toys","Main Office","755 Columbia Ctr Blvd","","Kennewick","Washington","99337","United States"
1890,"Travel Sports","Main Office","755 Nw Grandstand","","Issaquah","Washington","98027","United States"
1230,"Fitness Supplies","Main Office","755 W Washington Ave Ste D","","Sequim","Washington","98382","United States"
1206,"Capable Sales and Service","Main Office","765 Delridge Way Sw","","Seattle","Washington","98104","United States"
1930,"Reliable Brake Systems","Main Office","770 South Point Dr","","Memphis","Tennessee","38103","United States"
1080,"Exchange Parts Inc.","Main Office","7700 Green Road","","Raleigh","North Carolina","27603","United States"
874,"Real Sporting Goods","Main Office","7709 West Virginia Avenue","","Phoenix","Arizona","85004","United States"
766,"Extreme Toy Store","Main Office","7725 Luddington Lane","","Birmingham","Alabama","35203","United States"
1814,"Fitness Department Stores","Main Office","7750 E Marching Rd","","Scottsdale","Arizona","85257","United States"
694,"Genuine Bike Shop","Main Office","7760 N. Pan Am Expwy","","San Antonio","Texas","78204","United States"
444,"Fourth Bike Store","Main Office","77993 Mentor Ave.","","Mentor","Ohio","44060","United States"
440,"Juvenile Sports Equipment","Main Office","78025 E. Mercy Island Cswy","","Merritt Island","Florida","32952","United States"
516,"Initial Bike Company","Main Office","789 West Alameda","","Westminster","Colorado","80030","United States"
394,"Blue-Ribbon Bike Company","Main Office","790 Shelbyville Road","","Saint Matthews","Kentucky","40207","United States"
1028,"Progressive Sports","Shipping","7943 Walnut Ave","","Renton","Washington","98055","United States"
1174,"Sure & Reliable Sporting Goods","Main Office","7990 Ocean Beach Hwy.","","Longview","Washington","98632","United States"
1024,"Exemplary Cycles","Main Office","79945 Corporate Center Drive","","Miami","Florida","33127","United States"
476,"Industrial Supplies","Main Office","825 Coral Way","","Miami","Florida","33127","United States"
1048,"Countryside Company","Main Office","825 W 500 S","","Bountiful","Utah","84010","United States"
354,"Acclaimed Bicycle Company","Main Office","830 Highway 499 So","","Mcdonough","Georgia","30253","United States"
1194,"Variety Bike Outlet","Main Office","83995 South Dixie Highway","","Miami","Florida","33127","United States"
1030,"Underglaze and Finish Company","Main Office","8520 University City Blvd","","Charlotte","North Carolina","28202","United States"
734,"Superlative Bikes","Main Office","8525 Nw 17th St.","","Miami","Florida","33127","United States"
1900,"Fun Times Club","Main Office","8525 South Parker Road","","Parker","Colorado","80138","United States"
1332,"Catalog Store","Main Office","855 East Main Avenue","","Zeeland","Michigan","49464","United States"
1404,"Rally Master Company Inc","Main Office","870 N. 54th Ave.","","Chandler","Arizona","85225","United States"
1470,"All Cycle Shop","Shipping","8713 Yosemite Ct.","","Bothell","Washington","98011","United States"
1954,"Recreation Supplies","Main Office","8789 S.W. 2517 Ave.","","Kendall","Florida","33143","United States"
548,"Eastside Sporting Goods","Main Office","89950 Castleton Corner","","Indianapolis","Indiana","46204","United States"
1334,"Chic Department Stores","Main Office","90025 Sterling St","","Irving","Texas","75061","United States"
1320,"Security Racks and Locks Wholesalers","Main Office","910 Main Street.","","Sparks","Nevada","89431","United States"
1330,"Elite Bikes","Shipping","9178 Jumping St.","","Dallas","Texas","75201","United States"
1204,"Racing Toys","Shipping","9228 Via Del Sol","","Phoenix","Arizona","85004","United States"
1966,"Convenient Sales and Service","Main Office","950 Gateway Street","","Springfield","Oregon","97477","United States"
1870,"Big Cycle Mall","Main Office","9500b E. Central Texas Expressway","","Killeen","Texas","76541","United States"
1158,"Paints and Solvents Company","Main Office","955 E. County Line Rd.","","Englewood","Colorado","80110","United States"
414,"Lubricant and Grease Suppliers","Main Office","956k North Wesleyan Blvd.","","Rocky Mount","North Carolina","27803","United States"
616,"Tread Industries","Shipping","9707 Coldwater Drive","","Orlando","Florida","32804","United States"
1310,"Unified Sports Company","Main Office","9876 Fruitville Rd","","Sarasota","Florida","34236","United States"
994,"Incomparable Bicycle Store","Main Office","99 Edgewater Drive","","Norwood","Massachusetts","02062","United States"
1126,"Hardware Components","Shipping","99 Front Street","","Minneapolis","Minnesota","55402","United States"
496,"Grease and Oil Products Company","Main Office","9903 Highway 6 South","","Houston","Texas","77003","United States"
1388,"Official Parts Shop","Main Office","9905 Three Rivers Drive","","Kelso","Washington","98626","United States"
686,"Full-Service Bike Store","Main Office","9920 North Telegraph Rd.","","Pontiac","Michigan","48342","United States"
1018,"Trusted Catalog Store","Main Office","9920 Picketts Line Road","","Newport News","Virginia","23607","United States"
1434,"Endurance Bikes","Main Office","99200 Dixwell Ave.","","Hamden","Connecticut","06518","United States"
1032,"Brakes and Gears","Main Office","9927 N. Main St.","","Tooele","Utah","84074","United States"
838,"Stock Parts and Supplies","Main Office","99295 S.e. Tualatin Valley_hwy.","","Hillsboro","Oregon","97123","United States"
430,"Center Cycle Shop","Main Office","99300 223rd Southeast","","Bothell","Washington","98011","United States"
1064,"Retread Tire Company","Main Office","9935 Robert C Daniel Jr Parkway","","Augusta","Georgia","30901","United States"
818,"Suburban Cycle Shop","Main Office","994 Sw Cherry Park Rd","","Troutdale","Oregon","97060","United States"
672,"Good Bike Shop","Main Office","99433 S. Greenbay Rd.","","Racine","Wisconsin","53182","United States"
976,"Genial Bike Associates","Main Office","99450 Highway 59 North","","Humble","Texas","77338","United States"
1414,"Bike Dealers Association","Main Office","9952 E. Lohman Ave.","","Las Cruces","New Mexico","88001","United States"
1378,"Selected Distributors","Main Office","99535 Dallas Highway","","Marietta","Georgia","30060","United States"
1878,"Immediate Repair Shop","Main Office","9963 Tresser Blvd.","","Stamford","Connecticut","06901","United States"
452,"Field Trip Inc","Main Office","997000 Telegraph Rd.","","Southfield","Michigan","48034","United States"
544,"Painters Bicycle Specialists","Main Office","9975 Union St.","","Waterbury","Connecticut","06710","United States"
360,"Novelty Bikes","Main Office","998 Forest Road","","Saginaw","Michigan","48601","United States"
1824,"Major Sporting Goods","Main Office","9980 S Alma School Road","","Chandler","Arizona","85225","United States"
746,"Grand Sport Boutique","Main Office","99800 Tittabawasee Rd.","","Saginaw","Michigan","48601","United States"
1136,"Rental Bikes","Main Office","99828 Routh Street, Suite 825","","Dallas","Texas","75201","United States"
752,"Elemental Sporting Goods","Main Office","99842 White Mill East","","Decatur","Georgia","30030","United States"
952,"Active Systems","Main Office","9995 West Central Entrance","","Duluth","Minnesota","55802","United States"
1248,"Glossy Bikes","Main Office","Adirondack Factory Outlet","","Lake George","New York","12845","United States"
424,"Bikes Anyone?","Main Office","Ames Plaza","","Saugus","Massachusetts","01906","United States"
1036,"Mountain Bike Store","Main Office","Amity Plaza","","New Haven","Connecticut","06510","United States"
570,"Professional Cycle Store","Main Office","Arcadia Crossing","","Phoenix","Arizona","85004","United States"
1240,"Daring Rides","Main Office","Bay Area Outlet Mall","","Clearwater","Florida","33755","United States"
368,"Brightwork Company","Main Office","Belz Factory Outlet","","Las Vegas","Nevada","89106","United States"
1898,"Valuable Bike Parts Company","Main Office","Belz Factory Outlet","","Orlando","Florida","32804","United States"
334,"Global Plaza","Main Office","Belz Factory Outlet","","Pigeon Forge","Tennessee","37863","United States"
522,"Raw Materials Inc","Main Office","Bldg. 9n/99298","","Redmond","Washington","98052","United States"
308,"Valley Bicycle Specialists","Main Office","Blue Ridge Mall","","Kansas City","Missouri","64106","United States"
1450,"Guaranteed Sales and Service","Main Office","Buckeye Factory Shops","","Burbank","Ohio","44214","United States"
710,"Wonderful Bikes Inc.","Main Office","C/O Arrow Electronics","","Memphis","Tennessee","38103","United States"
1266,"Reasonable Bicycle Sales","Main Office","C/O Starpak, Inc.","","Greeley","Colorado","80631","United States"
1164,"Consolidated Sales","Main Office","Carolina Factory Shops","","Gaffney","South Carolina","29340","United States"
1094,"Little Bicycle Supply Shop","Main Office","Cedar Creek Stores","","Mosinee","Wisconsin","54455","United States"
878,"Bicycle Outfitters","Main Office","Cherry Grove Plaza","","Cincinnati","Ohio","45202","United States"
1126,"Hardware Components","Main Office","City Center","","Minneapolis","Minnesota","55402","United States"
832,"Lease-a-Bike Shop","Main Office","Connecticut Post Mall","","Milford","Connecticut","06460","United States"
1462,"Small Bike Accessories Shop","Main Office","Consumer Square","","Cheektowaga","New York","14227","United States"
788,"Paint Supply","Main Office","Corporate Office","","Garland","Texas","75040","United States"
1096,"Retail Toy Store","Main Office","Dadeland Mall, Space 25090","","Miami","Florida","33127","United States"
1070,"Fitness Sport Boutique","Main Office","Dansk Square","","Kittery","Maine","03904","United States"
480,"Front Runner Bikes","Main Office","DeSouth Square","","Bradenton","Florida","34205","United States"
388,"Remarkable Bike Store","Main Office","Eastern Beltway Center","","Las Vegas","Nevada","89106","United States"
318,"Great Bikes","Main Office","Eastridge Mall","","Casper","Wyoming","82601","United States"
698,"Bike Rims Company","Main Office","Edgewater Mall","","Biloxi","Mississippi","39530","United States"
1806,"Black Bicycle Company","Main Office","Factory Merchants","","Branson","Missouri","65616","United States"
366,"Activity Center","Main Office","Factory Stores Of America","","Crossville","Tennessee","38555","United States"
862,"Retail Sporting Equipment","Main Office","Factory Stores Of America","","Mesa","Arizona","85201","United States"
1902,"Chain and Chain Tool Distributions","Main Office","Factory Stores Of America","","Smithfield","North Carolina","27577","United States"
850,"Regional Manufacturing","Main Office","Factory Stores/tucson","","Tucson","Arizona","85701","United States"
1390,"Contoso, Ltd.","Main Office","Fiesta Trail Shopping Center","","San Antonio","Texas","78204","United States"
342,"Mountain Toy Store","Main Office","First Colony Mall","","Sugar Land","Texas","77478","United States"
326,"Worthwhile Activity Store","Main Office","Flagler Park Plaza","","Miami","Florida","33127","United States"
654,"Ultimate Bike Shop","Main Office","Foothills Mall","","Maryville","Tennessee","37801","United States"
462,"Sporting Goods and Bicycle Shop","Main Office","Fort Henry Mall","","Kingsport","Tennessee","37660","United States"
486,"Global Sporting Goods","Main Office","Fountains On The Lake","","Stafford","Texas","77477","United States"
1438,"Some Discount Store","Main Office","Frontier Mall","","Cheyenne","Wyoming","82001","United States"
352,"Tiny Bike Boutique","Main Office","Fsa Outlet Center","","Nashville","Tennessee","37203","United States"
992,"Latest Accessories Sales","Main Office","Gateway","","Portland","Oregon","97205","United States"
364,"Leading Bike Distributors","Main Office","Grand Central Place","","Somerset","Kentucky","42501","United States"
320,"Metropolitan Sales and Rental","Main Office","Granite State Marketplace","","Hooksett","New Hampshire","03106","United States"
576,"Independent Outlet","Main Office","Great Northern Mall Hwy4 & Rt. 31","","Clay","New York","13041","United States"
1270,"Outdoor Sports Supply","Main Office","Great Northwestern","","North Bend","Washington","98045","United States"
1052,"Traditional Department Stores","Main Office","Green Acres Mall","","Valley Stream","New York","11580","United States"
340,"eCommerce Bikes","Main Office","Gulfport Factory Shops","","Gulfport","Mississippi","39501","United States"
1922,"A Cycle Shop","Main Office","Heritage Mall","","Albany","Oregon","97321","United States"
568,"Hobby Store","Main Office","Highland Lakes Shopping Ctr.","","Orlando","Florida","32804","United States"
310,"New Bikes Company","Main Office","Hilton Head Factory Outlets No. 25","","Bluffton","South Carolina","29910","United States"
536,"Nonskid Tire Company","Main Office","Holiday Village Mall","","Great Falls","Montana","59401","United States"
1436,"Practical Bike Supply Company","Main Office","Horizon Outlet","","Woodbury","Minnesota","55125","United States"
392,"Small Cycle Store","Main Office","Horizon Outlet Center","","Holland","Michigan","49423","United States"
916,"Blue Bicycle Company","Main Office","Horizon Outlet Center","","Monroe","Michigan","98272","United States"
1456,"Sunny Place Bikes","Main Office","Horizon Outlet Center","","Vero Beach","Florida","32960","United States"
836,"Active Cycling","Main Office","Indian Mound Mall","","Heath","Ohio","43056","United States"
692,"Grand Discount Store","Main Office","Indiana Factory Shops","","Daleville","Indiana","47334","United States"
298,"The Bike Mechanics","Main Office","Johnny Appleseed Shop.center","","Mansfield","Ohio","44903","United States"
1448,"Friendly Neighborhood Bikes","Main Office","Johnson Creek","","Johnson Creek","Wisconsin","53038","United States"
1050,"First Bike Store","Main Office","Kansas City Factory Outlet","","Odessa","Missouri","64076","United States"
1976,"Exhilarating Cycles","Main Office","Kensington Valley Shops","","Howell","Michigan","48843","United States"
344,"Retail Sales and Service","Main Office","Lake Region Factory Outlet","","Tilton","New Hampshire","03276","United States"
902,"Cash & Carry Bikes","Main Office","Lakeline Mall","","Cedar Park","Texas","78613","United States"
1834,"Bike Experts","Main Office","Lancaster Mall","","Salem","Oregon","97301","United States"
306,"Clamps & Brackets Co.","Main Office","Leesburg Premium Outlet Centre","","Leesburg","Virginia","20176","United States"
870,"Vast Bike Sales and Rental","Main Office","Lewis County Mall","","Chehalis","Washington","98532","United States"
304,"Bicycle Accessories and Kits","Main Office","Lewiston Mall","","Lewiston","Idaho","83501","United States"
1968,"Solid Bike Parts","Main Office","Lincoln Square","","Arlington","Texas","76010","United States"
1074,"Recreation Systems","Main Office","Logansport Mall","","Logansport","Indiana","46947","United States"
1812,"Maintenance and Repair for Bicycles","Main Office","Lone Star Factory","","La Marque","Texas","77568","United States"
292,"Next-Door Bike Store","Main Office","Mall Of Memphis","","Memphis","Tennessee","38103","United States"
1120,"Rural Sales and Service","Main Office","Management Mall","","San Antonio","Texas","78204","United States"
898,"Tough and Reliable Parts","Main Office","Market Square Shopping Center","","Lakeland","Florida","33801","United States"
858,"Roadway Bike Emporium","Main Office","Medford","","Medford","Oregon","97504","United States"
1034,"The Accessories Store","Main Office","Medford Outlet Center","","Medford","Minnesota","55049","United States"
1868,"Executive Gift Store","Main Office","New Castle Plaza","","New Castle","Indiana","47362","United States"
1468,"Village Tours","Main Office","Newport Shopping Center","","Newport","Kentucky","41071","United States"
1084,"Running and Cycling Gear","Main Office","No. 60 Bellis Fair Parkway","","Bellingham","Washington","98225","United States"
546,"Client Discount Store","Main Office","Noah Lane","","Chicago","Illinois","60610","United States"
656,"Outstanding Cycles","Main Office","North 93270 Newport Highway","","Spokane","Washington","99202","United States"
1100,"All Seasons Sports Supply","Main Office","Ohms Road","","Houston","Texas","77003","United States"
554,"Racks and Security Systems","Main Office","One Equinox Way","","Sunrise","Florida","33322","United States"
1318,"Town Industries","Main Office","P.O. Box 6256916","","Dallas","Texas","75201","United States"
716,"Famous Bike Sales and Service","Main Office","P.O. Box 9005","","Endicott","New York","13760","United States"
650,"Distance Bikes","Main Office","Park North Business Center","","Clarkston","Georgia","30021","United States"
1862,"Racing Association","Main Office","Parkway City Mall","","Huntsville","Alabama","35801","United States"
1460,"Cycles and Scooters","Main Office","Peach Festival Outlet","","Byron","Georgia","31008","United States"
1202,"Noiseless Gear Company","Main Office","Peachtree Mall","","Columbus","Georgia","31901","United States"
988,"Manufacturers Inc","Main Office","Po Box 08050","","Nashville","Tennessee","37203","United States"
1362,"Metro Bike Mart","Main Office","Po Box 2257","","Greensboro","North Carolina","27412","United States"
450,"Unsurpassed Bikes","Main Office","Po Box 8035996","","Dallas","Texas","75201","United States"
1330,"Elite Bikes","Main Office","Po Box 8259024","","Dallas","Texas","75201","United States"
422,"Bike Boutique","Main Office","Polaris Town Center","","Columbus","Ohio","43215","United States"
1372,"Friendly Bike Shop","Main Office","Port Huron","","Port Huron","Michigan","48060","United States"
1204,"Racing Toys","Main Office","Prime Outlets","","Phoenix","Arizona","85004","United States"
1820,"Strong Metal Manufacturing","Main Office","Pyramid Mall","","Ithaca","New York","14850","United States"
488,"Historic Bicycle Sales","Main Office","Redford Plaza","","Redford","Michigan","48239","United States"
1924,"Bike Products and Accessories","Main Office","Regency Hilltop Shopping Cntr","","Virginia Beach","Virginia","23451","United States"
872,"Summer Sports Place","Main Office","Ring Plaza","","Norridge","Illinois","60706","United States"
348,"Bold Bike Accessories","Main Office","Rocky Mountain Pines Outlet","","Loveland","Colorado","80537","United States"
600,"Thorough Parts and Repair Services","Main Office","S Sound Ctr Suite 25300","","Lacey","Washington","98503","United States"
520,"Modern Bike Store","Main Office","Saltonstall Parkway","","East Haven","Connecticut","06512","United States"
800,"Stationary Bikes and Stands","Main Office","Sapp Road West","","Round Rock","Texas","78664","United States"
884,"Qualified Sales and Repair Services","Main Office","Savannah Festival Outlet","","Savannah","Georgia","31401","United States"
1918,"Simple Bike Parts","Main Office","Silver Sands Factory Outlet","","Destin","Florida","32541","United States"
390,"Road-Way Mart","Main Office","Southgate Mall","","Missoula","Montana","59801","United States"
1848,"Designer Department Stores","Main Office","Southwest Outlet","","Hillsboro","Texas","76645","United States"
764,"Fashionable Bikes and Accessories","Main Office","Sports Store At Park City","","Park City","Utah","84098","United States"
1822,"Gift and Toy Store","Main Office","Sports Stores @ Tuscola","","Tuscola","Illinois","61953","United States"
890,"Expert Sports Store","Main Office","Spring Meadows Place","","Holland","Ohio","43528","United States"
1374,"Yellow Bicycle Company","Main Office","St. Louis Marketplace","","Saint Louis","Missouri","63103","United States"
1086,"Seventh Bike Store","Main Office","Stateline Plaza","","Plaistow","New Hampshire","03865","United States"
296,"Riders Company","Main Office","Tanger Factory","","Branch","Minnesota","55056","United States"
1912,"The Cycle Store","Main Office","The Corner Shopping Center","","Falls Church","Virginia","22046","United States"
1846,"Honest Repair Service","Main Office","Three Rivers Mall","","Kelso","Washington","98626","United States"
1872,"Budget Bike Company","Main Office","Tom Morris","","Millington","Tennessee","38054","United States"
1836,"Extraordinary Bike Works","Main Office","Town East Center","","Mesquite","Texas","75149","United States"
904,"Convenient Bike Shop","Main Office","Tree Plaza","","Braintree","Massachusetts","02184","United States"
362,"Distinctive Cycles Sales & Service","Main Office","Turfway Retail Center","","Florence","Kentucky","41042","United States"
910,"Quitting Business Distributors","Main Office","University Plaza","","Tampa","Florida","33602","United States"
402,"Impromptu Trips","Main Office","Valley Mall","","Union Gap","Washington","98903","United States"
1904,"Mobile Outlet","Main Office","Walnut Hill Plaza","","Woonsocket","Rhode Island","02895","United States"
638,"Responsible Bike Dealers","Main Office","Ward Parkway Center","","Kansas City","Missouri","64106","United States"
528,"Parcel Express Delivery Service","Main Office","Washington Square","","Portland","Oregon","97205","United States"
846,"Super Sports Store","Main Office","Washington Square Ii","","Indianapolis","Indiana","46204","United States"
922,"Parts Shop","Main Office","West Georgia Commons","","La Grange","Georgia","30240","United States"
664,"Casual Bicycle Store","Main Office","Westside Plaza","","Nashua","New Hampshire","03064","United States"
330,"Major Sport Suppliers","Main Office","White Mountain Mall","","Rock Springs","Wyoming","82901","United States"
404,"Margie's Travel","Main Office","Woodbury Commons","","Central Valley","New York","10917","United States"
328,"Purchase Mart","Main Office","Wrentham Village","","Wrentham","Massachusetts","02093","United States"
956,"Finer Sales and Service","Main Office","#500-75 O'Connor Street","","Ottawa","Ontario","K4B 1S2","Canada"
780,"Finer Riding Supplies","Main Office","#9900 2700 Production Way","","Burnaby","British Columbia","V5A 4X1","Canada"
482,"Favorite Toy Distributor","Main Office","1, place de la République","","Paris","Seine (Paris)","75017","France"
1274,"Self-Contained Cycle Parts Company","Main Office","12, rue des Grands Champs","","Verrieres Le Buisson","Essonne","91370","France"
1958,"Ultimate Bicycle Company","Main Office","12, rue Lafayette","","Morangis","Essonne","91420","France"
1262,"Roadway Bicycle Supply","Main Office","121, rue de Varenne","","Courbevoie","Hauts de Seine","92400","France"
1104,"Outdoor Toy Store","Main Office","18, rue de l´Esplanade","","Aujan Mournede","Gers","32300","France"
618,"Petroleum Products Distributors","Main Office","20225 Lansing Ave","","Montreal","Quebec","H1Y 2H7","Canada"
1396,"Racing Tours","Main Office","21, avenue de la Gare","","Sèvres","Hauts de Seine","92310","France"
942,"Wheels Inc.","Main Office","21105, rue de Varenne","","Paris","Seine (Paris)","75013","France"
1142,"Major Amusement Company","Main Office","2111, rue de Linois","","Orly","Val de Marne","94310","France"
866,"Brand New Bikes","Main Office","215, avenue Reille","","Les Ulis","Essonne","91940","France"
1154,"Instant Cycle Store","Main Office","21801, rue Léo Delibes","","Colombes","Hauts de Seine","92700","France"
1894,"The Bike Outlet","Main Office","22, rue du Départ","","Pantin","Seine Saint Denis","93500","France"
854,"First Center","Main Office","22, rue Lafayette","","Pantin","Seine Saint Denis","93500","France"
676,"Inexpensive Parts Shop","Main Office","2253 Miller Street","","North Sydney","New South Wales","2055","Australia"
350,"Twin Cycles","Main Office","2253-217 Palmer Street","","Darlinghurst","New South Wales","2010","Australia"
622,"Bikes and Motorbikes","Main Office","22580 Free Street","","Toronto","Ontario","M4B 1V7","Canada"
624,"Budget Toy Store","Main Office","25 Epping Road","","Lavender Bay","New South Wales","2060","Australia"
412,"Gasless Cycle Shop","Main Office","25 First Canadian Place","","Toronto","Ontario","M4B 1V5","Canada"
1382,"Shipping Specialists","Main Office","25 Hartfield Road, Wimbledon","","London","England","SW19 3RU","United Kingdom"
1454,"Recommended Bicycles","Main Office","250 Kingsbridge Garden Circle","","Mississauga","Ontario","L5B 3V4","Canada"
1418,"Health Spa, Limited","Main Office","2500 University Avenue","","Toronto","Ontario","M4B 1V5","Canada"
428,"Finer Cycle Shop","Main Office","2500-622 5th Ave Sw","","Calgary","Alberta","T2P 2G8","Canada"
384,"Seaside Bike Works","Main Office","2501 Miller Street","","North Sydney","New South Wales","2055","Australia"
1130,"Efficient Cycling","Main Office","250333 Southport Road, S.W.","","Calgary","Alberta","T2P 2G8","Canada"
806,"Certified Sports Supply","Main Office","250551 Shellbridge Way","","Richmond","British Columbia","V6B 3P7","Canada"
562,"Custom Accessories Company","Main Office","251 Indell Lane","","Brampton","Ontario","L6W 2T7","Canada"
1892,"West Side Mart","Main Office","251 The Metro Center","","Wokingham","England","RG41 1QW","United Kingdom"
1144,"Retail Discount Store","Main Office","2510 Crew Court","","Montreal","Quebec","H1Y 2H8","Canada"
648,"Corner Bicycle Supply","Main Office","2511 Baker Road","","Toronto","Ontario","M4B 1V7","Canada"
1298,"Racing Partners","Main Office","2512-410th Avenue S.W.","","Calgary","Alberta","T2P 2G8","Canada"
1288,"Gear-Shift Bikes Limited","Main Office","2512-4th Ave Sw","","Calgary","Alberta","T2P 2G8","Canada"
1840,"Top Sports Supply","Main Office","251420a 170th Street","","Edmonton","Alberta","T5","Canada"
1972,"Mercantile Outlet","Main Office","2520 Flanders Road","","Toronto","Ontario","M4B 1V4","Canada"
706,"Rental Gallery","Main Office","2520b Underwood Street","","Lavender Bay","New South Wales","2060","Australia"
1252,"Up-To-Date Sports","Main Office","2521 McPherson Street","","Markham","Ontario","L3S 3K2","Canada"
500,"Toy Manufacturing Inc","Main Office","252345 8810th Avenue","","Surrey","British Columbia","V3T 4W3","Canada"
596,"Metro Metals Co.","Main Office","2524 Barlby Road","","London","England","W10 6BL","United Kingdom"
720,"Machines & Cycles Store","Main Office","25245 Rue Sherbrooke Ouest","","Montreal","Quebec","H1Y 2H5","Canada"
324,"Valley Toy Store","Main Office","252851 Rowan Place","","Richmond","British Columbia","V6B 3P7","Canada"
1056,"General Department Stores","Main Office","253131 Lake Frasier Drive, Office No. 2","","Calgary","Alberta","T2P 2G8","Canada"
464,"Odometers and Accessories Company","Main Office","253711 Mayfield Place, Unit 150","","Richmond","British Columbia","V6B 3P7","Canada"
346,"Designated Distributors","Main Office","254 Colonnade Road","","Nepean","Ontario","K2J 2W5","Canada"
592,"Retail Mall","Main Office","254480 River Rd","","Richmond","British Columbia","V6B 3P7","Canada"
1406,"Professional Cyclists","Main Office","2545 King Street West","","Toronto","Ontario","M4B 1V7","Canada"
894,"Jumbo Bikes","Main Office","254a James Street Botany","","Malabar","New South Wales","2036","Australia"
1272,"Outdoor Aerobic Systems Company","Main Office","255 Irving Street","","London","England","C2H 7AU","United Kingdom"
1180,"Purple Bicycle Company","Main Office","2550 Middlefield Road","","Scarborough","Ontario","M1V 4M2","Canada"
986,"Metro Manufacturing","Main Office","2550 Signet Drive","","Weston","Ontario","M9V 4W3","Canada"
750,"Custom Sales and Service","Main Office","255117 - 101 Avenue","","Surrey","British Columbia","V3T 4W3","Canada"
438,"First-Rate Outlet","Main Office","25537 Hillside Avenue","","Victoria","British Columbia","V8V","Canada"
794,"Rewarding Activities Company","Main Office","25575 The Queensway","","Etobicoke","Ontario","M9W 3P3","Canada"
732,"Urban Sports Emporium","Main Office","2560 Bay Street","","Toronto","Ontario","M4B 1V7","Canada"
1314,"Volume Bike Sellers","Main Office","2565-175 Mitchell Road","","Alexandria","New South Wales","2015","Australia"
852,"Original Bicycle Supply Company","Main Office","2573 Dufferin Street","","Toronto","Ontario","M4B 1V5","Canada"
1060,"Operational Manufacturing","Main Office","25730, boul. St-Régis","","Dorval","Quebec","H9P 1H1","Canada"
1122,"Tubeless Tire Company","Main Office","2574 Milton Park","","Oxford","England","OX14 4SE","United Kingdom"
490,"Commuter Bicycle Store","Main Office","2575 Bloor Street East","","Toronto","Ontario","M4B 1V6","Canada"
690,"Kids and Adults Cycle Shop","Main Office","258 Berry Street","","North Sydney","New South Wales","2055","Australia"
1192,"Non-Slip Pedal Company","Main Office","258 King Street East","","Toronto","Ontario","M4B 1V7","Canada"
418,"Transportation Options","Main Office","25900-700-9th Ave S.W.","","Calgary","Alberta","T2P 2G8","Canada"
332,"Family's Favorite Bike Shop","Main Office","25981 College Street","","Montreal","Quebec","H1Y 2H5","Canada"
808,"Registered Cycle Store","Main Office","26, rue Saint Denis","","Orleans","Loiret","45000","France"
332,"Family's Favorite Bike Shop","Shipping","26910 Indela Road","","Montreal","Quebec","H1Y 2H5","Canada"
1384,"Finer Sporting Goods","Main Office","28, avenue des Champs-Elysées","","Croix","Nord","59170","France"
1212,"Road Way Sales and Rental","Main Office","2900 - 25055 Dunning Street","","Vancouver","British Columbia","V7L 4J4","Canada"
594,"Racing Store","Main Office","30, avenue de l´ Union Centrale","","Les Ulis","Essonne","91940","France"
668,"General Cycle Storehouse","Main Office","30025 Wayburne Drive, Suite 275","","Burnaby","British Columbia","V5G 4W1","Canada"
1232,"Mail Market","Main Office","308-3250 Casting Road","","York","England","Y024 1GF","United Kingdom"
1234,"Spare Parts Co.","Main Office","3101, avenue de Malakoff","","Paris","Seine (Paris)","75003","France"
1276,"Metal Clearing House","Main Office","3255 Front Street West","","Toronto","Ontario","M4B 1V6","Canada"
1062,"Online Bike Warehouse","Main Office","32605 West 252 Mile Road, Suite 250","","Aurora","Ontario","L4G 7N6","Canada"
962,"Spa and Exercise Outfitters","Main Office","33, rue Georges-Clémenceau","","Cergy","Val d'Oise","95000","France"
1380,"Impervious Paint Company","Main Office","3383, rue Lamarck","","Paris","Seine (Paris)","75007","France"
1474,"Cycles Sales and Repair","Main Office","3387, rue Marbeuf","","Bobigny","Seine Saint Denis","93000","France"
628,"Ace Bicycle Supply","Main Office","36, avenue de la Gare","","Paris","Seine (Paris)","75019","France"
1114,"Community Department Stores","Main Office","3639, rue des Grands Champs","","Boulogne-sur-Mer","Pas de Calais","62200","France"
1800,"Hiatus Bike Tours","Main Office","3833, boulevard Beau Marchais","","Paris","Seine (Paris)","75009","France"
1986,"Recreation Toy Store","Main Office","39, avenue des Laurentides","","Paris La Defense","Hauts de Seine","92081","France"
590,"Full Sports Supply","Main Office","39, route de Marseille","","Paris","Seine (Paris)","75016","France"
1116,"Area Sheet Metal Supply","Main Office","399 Clearing Green","","London","England","EC1R 0DU","United Kingdom"
626,"Camping and Sports Store","Main Office","400-25155 West Pender St","","Vancouver","British Columbia","V7L 4J4","Canada"
300,"Nationwide Supply","Main Office","4250 Concord Road","","Rhodes","New South Wales","2138","Australia"
920,"General Riding Supplies","Main Office","43251 Viking Way, Unit 130","","Richmond","British Columbia","V6B 3P7","Canada"
960,"The Showroom","Main Office","4400 March Road","","Kanata","Ontario","K2L 1H5","Canada"
580,"Farthest Bike Store","Main Office","45259 Canada Way","","Burnaby","British Columbia","V5G 4S4","Canada"
1054,"Eastside Cycle Shop","Main Office","45671 Queens Road Ct.","","Melbourne","Victoria","3000","Australia"
1440,"Variety Cycling","Main Office","46-44 Albemarle Street","","London","England","W1X3SE","United Kingdom"
1828,"Major Cycling","Main Office","46990 Viking Way","","Richmond","British Columbia","V6B 3P7","Canada"
1798,"One Bike Company","Main Office","5 place Ville-Marie","","Montreal","Quebec","H1Y 2H7","Canada"
982,"Steel Inc.","Main Office","5, place de la Concorde","","Colombes","Hauts de Seine","92700","France"
1842,"Racing Sales and Service","Main Office","510, avenue de Villiers","","Orleans","Loiret","45000","France"
1264,"Refined Department Stores","Main Office","5250-505 Burning St","","Vancouver","British Columbia","V7L 4J4","Canada"
1022,"Sharp Bikes","Main Office","52560 Free Street","","Toronto","Ontario","M4B 1V7","Canada"
1830,"Getaway Inn","Main Office","54, avenue des Ternes","","Saint Ouen","Loir et Cher","41100","France"
998,"Greater Bike Store","Main Office","55 Lakeshore Blvd East","","Toronto","Ontario","M4B 1V6","Canada"
1916,"Active Life Toys","Main Office","55 Standish Court","","Mississauga","Ontario","L5B 3V4","Canada"
688,"Plastic Products Manufacturers","Main Office","5525 Glenferrie Road","","Hawthorne","Queensland","4171","Australia"
946,"Racing Supply Distributors","Main Office","57, rue des Vendangeurs","","Roissy en Brie","Seine et Marne","77680","France"
466,"Scratch-Resistant Finishes Company","Main Office","5700 Explorer Drive","","Mississauga","Ontario","L4W 5J3","Canada"
1340,"Cycle Merchants","Main Office","575 Rue St Amable","","Quebec","Quebec","G1R","Canada"
1140,"Express Bike Services","Main Office","586 Fulham Road,","","London","England","SW6 SBY","United Kingdom"
812,"Sundry Sporting Goods","Main Office","595 Burning Street","","Vancouver","British Columbia","V7L 4J4","Canada"
896,"Quick Delivery Service","Main Office","5990 Avebury Road","","Mississauga","Ontario","L5B 3V4","Canada"
1466,"Seats and Saddles Company","Main Office","5th Floor, 79 Place D'armes","","Kingston","Ontario","7L","Canada"
436,"Second Bike Shop","Main Office","6 Lord Street","","Matraville","New South Wales","2036","Australia"
868,"Central Bicycle Specialists","Main Office","6 The Farm, Liberty Road","","Maidenhead","England","SL67RJ","United Kingdom"
1324,"Metro Sports Equipment","Main Office","6, rue des Pyrenees","","Saint Ouen","Loir et Cher","41100","France"
1952,"Large Bike Shop","Main Office","600 Boul. Rene-levesque Ouest","","Montreal","Quebec","H1Y 2H7","Canada"
552,"Requisite Part Supply","Main Office","600 Slater Street","","Ottawa","Ontario","K4B 1S2","Canada"
886,"Our Sporting Goods Store","Main Office","6030 Conroy Road","","Ottawa","Ontario","K4B 1S3","Canada"
1368,"Reliable Retail Center","Main Office","609 Evans Avenue","","Toronto","Ontario","M4B 1V4","Canada"
1222,"Township Inn","Main Office","61, rue Henri Gagnon","","Les Ulis","Essonne","91940","France"
1400,"Finished Parts Shop","Main Office","62, route de Marseille","","Suresnes","Hauts de Seine","92150","France"
1364,"Tandem Sales and Service","Main Office","63 Free St.","","Toronto","Ontario","M4B 1V4","Canada"
510,"Bikes for Two","Main Office","63 West Beaver Creek","","Richmond Hill","Ontario","L4E 3M5","Canada"
1312,"National Manufacturing","Main Office","630 University Avenue","","Toronto","Ontario","M4B 1V7","Canada"
1352,"Grand Industries","Main Office","6333 Cote Vertu","","Montreal","Quebec","H1Y 2H7","Canada"
928,"Rural Cycle Emporium","Main Office","6388 Lake City Way","","Burnaby","British Columbia","V5A 3A6","Canada"
1224,"Acceptable Sales & Service","Main Office","6400, 888 - 3rd Avenue","","Calgary","Alberta","T2P 2G8","Canada"
784,"Online Bike Catalog","Main Office","65 Epping Rd","","Lavender Bay","New South Wales","2060","Australia"
456,"Uncompromising Quality Co","Main Office","65 Epping Road","","North Ryde","New South Wales","2113","Australia"
1156,"Leisure Activities","Main Office","65 Gamelin Street","","Hull","Quebec","8Y","Canada"
980,"Wholesale Parts","Main Office","655-4th Ave S.W.","","Calgary","Alberta","T2P 2G8","Canada"
1040,"Family Cycle Store","Main Office","660 Saint-Jacques, Bureau 400","","Montreal","Quebec","H1Y 2H8","Canada"
1402,"Consumer Equipment","Main Office","67 Vincent Square, Victoria","","London","England","SW1P 2NU","United Kingdom"
864,"Price-Cutter Discount Bikes","Main Office","6700 Boul Taschereau","","Brossard","Quebec","J4Z 1C5","Canada"
844,"Future Bikes","Main Office","67255 - 8th Street N.E., Suite 350","","Calgary","Alberta","T2P 2G8","Canada"
782,"Neighborhood Store","Main Office","6777 Kingsway","","Burnaby","British Columbia","V5H 3Z7","Canada"
1300,"Perfect Toys","Main Office","68081, place du Tertre","","Colomiers","Garonne (Haute)","31770","France"
1286,"Neighborhood Bicycle Storehouse","Main Office","69, boulevard Tremblay","","Roncq","Nord","59223","France"
908,"General Bike Corporation","Main Office","69251 Creditview Road","","Mississauga","Ontario","L5B 3V4","Canada"
1442,"Accessories Network","Main Office","699bis, rue des Peupliers","","Paris","Seine (Paris)","75008","France"
1488,"City Cycling","Main Office","6th Floor 5250 Main Street","","Winnipeg","Manitoba","R3","Canada"
678,"Nuts and Bolts Mfg.","Main Office","6th Floor Ferguson Block","","Toronto","Ontario","M4B 1V7","Canada"
1112,"Economy Center","Main Office","6th Floor, 25st Canadian Place","","Toronto","Ontario","M4B 1V5","Canada"
1964,"Extended Tours","Main Office","7 Garden House Cloisters, 8 Batters","","London","England","SW8 4BG","United Kingdom"
1208,"Little Sports Center","Main Office","7 Pioneer Business Park","","York","England","Y03 4TN","United Kingdom"
380,"Workout Emporium","Main Office","700 Bureau Road","","Montreal","Quebec","H1Y 2H7","Canada"
1078,"Eastside Parts Shop","Main Office","7000 Victoria Park Avenue","","Toronto","Ontario","M4B 1V4","Canada"
434,"Country Parts Shop","Main Office","7033, rue de Longchamp","","Les Ulis","Essonne","91940","France"
1832,"Downhill Bicycle Specialists","Main Office","725a The Arches","","Berks","England","SL4 1RH","United Kingdom"
1864,"Plastic Parts Company","Main Office","750 Philip Street","","Waterloo","Ontario","N2V","Canada"
508,"Atypical Bike Company","Main Office","7551, avenue Foch","","Paris","Seine (Paris)","75010","France"
512,"Metal Processing Company","Main Office","770 Notre Datme Quest Bureau 800","","Montreal","Quebec","H1Y 2H7","Canada"
564,"Unusual Bicycle Company","Main Office","85 Egerton Street","","Silverwater","New South Wales","2264","Australia"
1962,"Metropolitan Equipment","Main Office","88, avenue de l´ Union Centrale","","Paris","Seine (Paris)","75012","France"
1210,"Pretty Bikes and Toys","Main Office","9005, rue des Bouchers","","Paris","Seine (Paris)","75005","France"
1132,"General Industries","Main Office","9259 - 1110th Avenue Sw","","Calgary","Alberta","T2P 2G8","Canada"
432,"Bulk Discount Store","Main Office","93-2501, Blackfriars Road,","","London","England","SE1 8HL","United Kingdom"
1166,"Home Town Bike Store","Main Office","955 Green Valley Crescent","","Ottawa","Ontario","K4B 1S1","Canada"
970,"Primary Bike Distributors","Main Office","965 De La Gauchetiere West","","Montreal","Quebec","H1Y 2H8","Canada"
1200,"General Supplies","Main Office","9693 Louis H Lafontaine","","Ville De'anjou","Quebec","J1G 2R3","Canada"
1852,"Top Bike Market","Main Office","975 Princess Street","","Kingston","Ontario","7L","Canada"
1408,"Sports Products Store","Main Office","98, rue de Terre Neuve","","Lieusaint","Seine et Marne","77127","France"
1486,"Rural Mountain Bike Mart","Main Office","98, rue Montcalm","","Paris","Seine (Paris)","75019","France"
796,"Rich Department Store","Main Office","99 - 6 Orion Road","","Lane Cove","New South Wales","1597","Australia"
1386,"Authentic Sales and Service","Main Office","99 Dean Street, Soho","","London","England","W1V 5RN","United Kingdom"
1882,"Red Bicycle Company","Main Office","99, Rue Saint-pierre","","Pnot-Rouge","Quebec","J1E 2T7","Canada"
1162,"Bikes for Kids and Adults","Main Office","9900 Ronson Drive","","Etobicoke","Ontario","M9W 3P3","Canada"
1430,"Leather Seat Factory","Main Office","9900-6400 Boul, Taschereau","","Brossard","Quebec","J4Z 1R4","Canada"
1044,"Superb Sales and Repair","Main Office","990th Floor 700 De La GauchetiSre Ou","","Montreal","Quebec","H1Y 2H3","Canada"
1322,"Rapid Bikes","Main Office","992 St Clair Ave East","","Toronto","Ontario","M4B 1V7","Canada"
534,"Prosperous Tours","Main Office","99-3 Forest Works","","London","England","E17 6JF","United Kingdom"
566,"Courteous Bicycle Specialists","Main Office","995 Crescent","","Richmond Hill","Ontario","L4E 3M5","Canada"
828,"Vigorous Exercise Company","Main Office","9950 Ferrand Drive, 9th Floor","","Toronto","Ontario","M4B 1V4","Canada"
1940,"Fasteners & Bolts Outlet","Main Office","9960 King Street E.","","Toronto","Ontario","M4B 1V5","Canada"
948,"Standard Bikes","Main Office","9979 Bayview Drive","","Barrie","Ontario","L4N","Canada"
1802,"Cycling Goods","Main Office","997b Tradescant Road","","London","England","SW8 1XD","United Kingdom"
1394,"Tire Exchange","Main Office","9984 Wellington Street","","Ottawa","Ontario","K4B 1S2","Canada"
1816,"Famous Bike Shop","Main Office","999 West Georgia St.","","Vancouver","Ontario","V5T 1Y9","Canada"
1928,"Quick Parts and Service","Main Office","99954 Boul. Laurier, Local 060, Place","","Sainte-Foy","Quebec","G1W","Canada"
876,"Versatile Sporting Goods Company","Main Office","Alderstr 1849","","Braunschweig","Nordrhein-Westfalen","38001","Germany"
1190,"Mechanical Brake Manufacturers","Main Office","Alte Landstr 776","","München","Hamburg","80074","Germany"
736,"Primary Cycle Shop","Main Office","Am Grossen Dern 982","","Hamburg","Hamburg","20354","Germany"
606,"Speedometer Sales","Main Office","Am Karlshof 8200","","Hamburg","Hessen","22001","Germany"
646,"Rural Sporting Goods","Main Office","Auf der Krone 53","","Bonn","Nordrhein-Westfalen","53131","Germany"
1926,"Fitness Toys","Main Office","Auf Der Steige 1000","","Berlin","Hamburg","14111","Germany"
532,"North Bike Company","Main Office","Auf Der Steige 29","","Muehlheim","Hamburg","63151","Germany"
658,"Vigorous Sports Store","Main Office","Banbury","","Oxon","England","OX16 8RS","United Kingdom"
770,"Best Cycle Store","Main Office","Berliner Platz 45","","Offenbach","Saarland","63009","Germany"
768,"Citywide Service and Repair","Main Office","Box 99354 300 Union Street","","Saint John","Brunswick","E2P 1E3","Canada"
1326,"Nearby Sporting Goods","Main Office","Bradford","","W. York","England","BD1 4SJ","United Kingdom"
538,"Amalgamated Parts Shop","Main Office","Brunnenstr 422","","Frankfurt am Main","Hamburg","60082","Germany"
1250,"Next Door Cycles","Main Office","Brunnenstr 9511","","Berlin","Saarland","14197","Germany"
420,"Capital Riding Supplies","Main Office","Buergermeister-ulrich-str 9500","","Augsburg","Hamburg","86171","Germany"
1106,"The Commissary","Main Office","Bureau 9900 825, Avenue Querbes","","Outremont","Quebec","H1Y 2G5","Canada"
1410,"Exclusive Bicycle Mart","Main Office","Butterfield Hse, 7-251 Chapel St","","Lancaster","England","LA1 1LN","United Kingdom"
718,"First Supplies","Main Office","Chabbell Park","","North Ryde","New South Wales","2113","Australia"
378,"Pedaling Components","Main Office","Conesweg 49","","Kiel","Saarland","24044","Germany"
1342,"Global Sports Outlet","Main Office","Ctrcrt Bus Pk/995-27 Paul St N","","Lavender Bay","New South Wales","2060","Australia"
408,"Nearest Bike Store","Main Office","Ctrcrt Bus Pk/995-27 Paul St N","","North Ryde","New South Wales","2113","Australia"
1896,"Tenth Bike Store","Main Office","Depot 80","","Sillery","Quebec","G1T","Canada"
602,"Uttermost Bike Shop","Main Office","Ellesfield Ave","","Bracknell","England","RG12 8TB","United Kingdom"
944,"Number One Bike Co.","Main Office","Elmhurst Road, Goring","","Reading","England","RG7 5H7","United Kingdom"
830,"Showcase for Cycles","Main Office","Erftplatz 22","","Sulzbach Taunus","Saarland","66272","Germany"
984,"Riding Cycles","Main Office","Galashiels","","Liverpool","England","L4 4HB","United Kingdom"
416,"Teen Discount Store","Main Office","Haberstr 29","","Bonn","Hamburg","53131","Germany"
582,"Excellent Bikes","Main Office","Hans-Rosenthal-Platz 4223","","Grevenbroich","Bayern","41485","Germany"
636,"Bicycle Exporters","Main Office","Hellweg 4934","","Essen","Hamburg","45001","Germany"
1974,"Links Works","Main Office","Helsenbergbogen 6","","Ascheim","Hamburg","86171","Germany"
748,"Major Equipment Co","Main Office","Holzstr 6444","","Salzgitter","Hessen","38231","Germany"
1960,"Sports Store","Main Office","Internet House, 3399 Science Park","","Cambridge","England","CB4 4BZ","United Kingdom"
1020,"Bicycle Warehouse Inc.","Main Office","Karl Liebknecht str 299","","Frankfurt am Main","Saarland","60075","Germany"
314,"Top of the Line Bikes","Main Office","Knaackstr 7","","Paderborn","Hamburg","33041","Germany"
588,"Channel Outlet","Main Office","Knaves Beech Ind.","","High Wycombe","England","HP10 9QY","United Kingdom"
1088,"Fast Services","Main Office","Königsteiner Straße 449","","Leipzig","Nordrhein-Westfalen","04139","Germany"
1420,"Global Bike Retailers","Main Office","Königsteiner Straße 9","","Bad Soden","Hessen","65800","Germany"
1160,"West Wind Distributors","Main Office","Krönerweg 9249","","Hannover","Nordrhein-Westfalen","30601","Germany"
1178,"Enterprise Center","Main Office","Kurfürstenstr 574","","München","Hessen","80074","Germany"
888,"Lustrous Paints and Components","Main Office","Kurfürstenstr 74","","Poing","Saarland","66041","Germany"
730,"Very Best Sports Supply","Main Office","Kurfürstenstr 9","","Duesseldorf","Hessen","40605","Germany"
1058,"Mass Market Bikes","Main Office","Level 59","","Alexandria","New South Wales","2015","Australia"
1950,"Helpful Sales and Repair Service","Main Office","Licensing Account","","Seaford","Victoria","3198","Australia"
1484,"Essential Bike Works","Main Office","New Millhouse, 2583 Milton Park","","Abingdon","England","OX14 4SE","United Kingdom"
1444,"Remote Bicycle Specialists","Main Office","No. 2000-25080 Beaver Hall Hill","","Quebec","Quebec","G1R","Canada"
1236,"Twelfth Bike Store","Main Office","No. 25400 10665 Jasper Avenue","","Edmonton","Alberta","T5","Canada"
312,"Vinyl and Plastic Goods Corporation","Main Office","No. 25800-130 King Street West","","Toronto","Ontario","M4B 1V5","Canada"
758,"Nearby Bike Mall","Main Office","Nonnendamm 63","","Berlin","Nordrhein-Westfalen","14197","Germany"
1854,"Region Bike Company","Main Office","P O Box 72569","","East Brisbane","Queensland","4169","Australia"
608,"Two-Wheeled Transit Company","Main Office","P.O. Box 44000","","Winnipeg","Manitoba","R3","Canada"
358,"Quality Bike Sales","Main Office","P.O. Box 990032","","Findon","South Australia","5023","Australia"
322,"Irregulars Outlet","Main Office","Pappelallee 19","","Dresden","Hessen","01071","Germany"
1844,"Metropolitan Bicycle Supply","Main Office","Paramount House","","London","England","W1N 9FA","United Kingdom"
1398,"Oils and Fluids Warehouse","Main Office","Park House-4th Floor, 2516 Park St.","","London","England","W1Y 3RA","United Kingdom"
1284,"Instruments and Parts Company","Main Office","Phoenix Way, Cirencester","","Gloucestershire","England","GL7 1RY","United Kingdom"
426,"Cross-town Parts Shop","Main Office","Po Box 25484","","Springwood","New South Wales","2777","Australia"
708,"South Bike Company","Main Office","Po Box 83270","","Vancouver","British Columbia","V7L 4J4","Canada"
1880,"Off-Price Bike Center","Main Office","Postfach 11 09 00","","Berlin","Hessen","14111","Germany"
1072,"Producer Goods Clearinghouse","Main Office","Postfach 55 00 00","","Frankfurt","Bayern","91480","Germany"
550,"Helmets and Cycles","Main Office","Rosebery","","Lavender Bay","New South Wales","2060","Australia"
1008,"Precision Gears Inc.","Main Office","Roßstr 2248","","Stuttgart","Saarland","70511","Germany"
578,"Rambling Tours","Main Office","Rotthäuser Weg 511","","Stuttgart","Saarland","70511","Germany"
1010,"Cross-Country Riding Supplies","Main Office","Station E","","Chalk Riber","Ontario","K0J 1J0","Canada"
1908,"Rural Bicycle Supply","Main Office","Suite #9902","","North York","Ontario","M4C 4K6","Canada"
1988,"Retreat Inn","Main Office","Suite 2502 410 Albert Street","","Waterloo","Ontario","N2V","Canada"
738,"Sixth Bike Store","Main Office","Suite 25800 3401 - 10810th Avenue","","Surrey","British Columbia","V3T 4W3","Canada"
1476,"Low Price Cycles","Main Office","Suite 500 995 W. 11th Avenue","","Mississauga","Ontario","L5A 1H6","Canada"
386,"Nice Bikes","Main Office","Suite 800 2530 Slater Street","","Ottawa","Ontario","K4B 1T7","Canada"
356,"Serious Cycles","Main Office","Suite 99320 255 - 510th Avenue S.W.","","Calgary","Alberta","T2P 2G8","Canada"
1102,"Leisure Clearing House","Main Office","Unit 99a Battery Retail Pk","","Birmingham","England","B29 6SL","United Kingdom"
834,"Functional Store South","Main Office","Viktoria-Luise-Platz 475","","München","Nordrhein-Westfalen","80074","Germany"
1152,"Exceptional Cycle Services","Main Office","Wade Road","","Basingstoke Hants","England","RG24 8PL","United Kingdom"
1914,"Educational Services","Main Office","Wallstr 244","","Saarbrücken","Saarland","66001","Germany"
856,"Action Bicycle Specialists","Main Office","Warrington Ldc Unit 25/2","","Woolston","England","WA1 4SY","United Kingdom"
1432,"Good Bicycle Store","Main Office","Werftstr 4400","","Sulzbach Taunus","Saarland","66272","Germany"
1220,"Commerce Bicycle Specialists","Main Office","Wharfdale Road","","Berkshire","England","RG11 5TP","United Kingdom"
1472,"Tachometers and Accessories","Main Office","Wymbush","","Milton Keynes","England","MK8 8DF","United Kingdom"
1354,"Ideal Components","Main Office","2-252 Beauchamp Road","Botany Bay Industrial Estate","Cloverdale","South Australia","6105","Australia"
1238,"Consolidated Messenger","Main Office","25 Danger Street West","Floor 7","Toronto","Ontario","M4B 1V5","Canada"
1874,"Eighth Bike Store","Main Office","2500 N Serene Blvd","19th Floor","El Segundo","California","90245","United States"
1038,"Bike Part Wholesalers","Main Office","254a Baker Street","Botany","Sydney","New South Wales","1002","Australia"
1866,"Gears and Parts Company","Main Office","2nd Floor","55 Lavender Street","Milsons Point","New South Wales","2061","Australia"
586,"Alternative Vehicles","Main Office","3307 Evergreen Blvd","Ste 1071","Washougal","Washington","98671","United States"
724,"Two Wheels Cycle Store","Main Office","77 Beale Street","Room 99767c","San Francisco","California","94109","United States"
932,"Modular Cycle Systems","Main Office","800 Interchange Blvd.","Suite 2501","Austin","Texas","78701","United States"
1356,"Larger Cycle Shop","Main Office","Attn: Accounts Payable","44 Main Place","Melville","New York","11747","United States"
810,"Rampart Amusement Company","Main Office","Bradford","Raven House, Kingsgate","W. York","England","BD1 4SJ","United Kingdom"
1076,"Rustic Bike Store","Main Office","Buergermeister-ulrich-str 3000","Buchhaltung","Augsburg","Bayern","86150","Germany"
996,"Hometown Riding Supplies","Main Office","Bundesallee 9571","Rechnungsstelle - C 035","Berlin","Brandenburg","14197","Germany"
1984,"Nearby Cycle Shop","Main Office","Burgess Hill","Edward Way","West Sussex","England","RH15 9UD","United Kingdom"
798,"Sales and Supply Company","Main Office","Corporate Ofc A/p","123 Fourth Ave","Chantilly","Virginia","20151","United States"
1302,"Exhibition Showroom","Main Office","Garamonde Drive, Wymbush","P.O. Box 803","Milton Keynes","England","MK8 8ZD","United Kingdom"
1260,"Closest Bicycle Store","Main Office","Garamonde Drive, Wymbush","PO Box 4023","Milton Keynes","England","MK8 8ZD","United Kingdom"
1906,"Regional Cycle Shop","Main Office","Karl Liebknecht str 399","Leiter der Abteilung","Berlin","Hessen","14111","Germany"
410,"Fast Bike Works","Main Office","Level 100","77 Southbank Boulevard","South Melbourne","Victoria","3205","Australia"
1452,"Preferable Bikes","Main Office","Level 25","538 Climbing Street","Rhodes","New South Wales","2138","Australia"
1464,"List Price Catalog Company","Main Office","Level 25","96 Lytton Rd.","Melbourne","Victoria","3000","Australia"
1366,"Sensible Sports","Main Office","Level 5","157 Liverpool Street","Rhodes","New South Wales","2138","Australia"
972,"Major Bicycle Store","Main Office","Level 6","538 Climbing Street","Matraville","New South Wales","2036","Australia"
906,"Fitness Bike Accessories","Main Office","Level 7","114 Albert Road","Rhodes","New South Wales","2138","Australia"
1818,"Eastward Bike Accessories","Main Office","Level 7","201 Sussex Street","Matraville","New South Wales","2036","Australia"
1042,"Popular Bike Lines","Main Office","Level 7","80 Arthur Street","Newcastle","New South Wales","2300","Australia"
1938,"Cycle Parts and Accessories","Main Office","Level 99","12 South 10th Avenue","Melbourne","Victoria","3000","Australia"
666,"Fitness Discount Store","Main Office","Level 992","56 Pitt Street","Melbourne","Victoria","3000","Australia"
1370,"Liquidation Sales","Main Office","No. 6","Millenium Court","Perth","South Australia","6006","Australia"
1934,"A Typical Bike Shop","Main Office","One Dancing, Rr No. 25","Box 8033","Round Rock","Texas","78664","United States"
918,"Expert Cycle Store","Main Office","Orwith Center","39 Herbert Street","St. Leonards","New South Wales","2065","Australia"
1198,"Fabrikam Inc., East","Main Office","Roßstr 9938","Verkaufsabteilung","Eilenburg","Brandenburg","04838","Germany"
940,"Cycles Wholesaler & Mfg.","Main Office","Science Park South, Birchwood","Stanford House","Warrington","England","WA3 7BH","United Kingdom"
446,"Rodeway Bike Store","Main Office","Winterfeldtstr 5557","Kreditorenbuchhaltung","Münster","Saarland","48001","Germany"
